{
  "type": "FeatureCollection",
  "features": [
    {
      "type": "Feature",
      "properties": {
        "norad_id": 66633,
        "name": "STARLINK-35948",
        "group": "last-30-days",
        "lat": 15.774967318417623,
        "lon": -162.98818400982685,
        "alt_km": 420.871435866331,
        "timestamp": "2025-12-13T05:42:56.156418+00:00",
        "meta_object_name": "STARLINK-35948",
        "meta_object_id": "2025-271S",
        "meta_epoch": "2025-12-12T06:00:00.999648",
        "meta_mean_motion": 15.51879518,
        "meta_eccentricity": 0.00011373,
        "meta_inclination": 53.1592,
        "meta_ra_of_asc_node": 189.5135,
        "meta_arg_of_pericenter": 94.5132,
        "meta_mean_anomaly": 168.8612,
        "meta_ephemeris_type": 0,
        "meta_classification_type": "U",
        "meta_norad_cat_id": 66633,
        "meta_element_set_no": 999,
        "meta_rev_at_epoch": 416,
        "meta_bstar": -0.03444718,
        "meta_mean_motion_dot": -0.01856167,
        "meta_mean_motion_ddot": 0,
        "tle_line1": "1 66633U 25271S   25346.25001157 -.01856167  00000+0 -34447-1 0  9990",
        "tle_line2": "2 66633  53.1592 189.5135 0001137  94.5132 168.8612 15.51879518  4162"
      },
      "geometry": {
        "type": "Point",
        "coordinates": [
          -162.98818400982685,
          15.774967318417623
        ]
      }
    },
    {
      "type": "Feature",
      "properties": {
        "norad_id": 66634,
        "name": "STARLINK-35967",
        "group": "last-30-days",
        "lat": 17.273750238718804,
        "lon": -161.73824444917818,
        "alt_km": 420.59026226657534,
        "timestamp": "2025-12-13T05:42:56.156431+00:00",
        "meta_object_name": "STARLINK-35967",
        "meta_object_id": "2025-271T",
        "meta_epoch": "2025-12-12T06:00:00.999648",
        "meta_mean_motion": 15.51881304,
        "meta_eccentricity": 0.00011913,
        "meta_inclination": 53.1592,
        "meta_ra_of_asc_node": 189.5093,
        "meta_arg_of_pericenter": 94.2047,
        "meta_mean_anomaly": 171.0843,
        "meta_ephemeris_type": 0,
        "meta_classification_type": "U",
        "meta_norad_cat_id": 66634,
        "meta_element_set_no": 999,
        "meta_rev_at_epoch": 409,
        "meta_bstar": -0.03444685,
        "meta_mean_motion_dot": -0.01856288,
        "meta_mean_motion_ddot": 0,
        "tle_line1": "1 66634U 25271T   25346.25001157 -.01856288  00000+0 -34447-1 0  9995",
        "tle_line2": "2 66634  53.1592 189.5093 0001191  94.2047 171.0843 15.51881304  4098"
      },
      "geometry": {
        "type": "Point",
        "coordinates": [
          -161.73824444917818,
          17.273750238718804
        ]
      }
    },
    {
      "type": "Feature",
      "properties": {
        "norad_id": 66635,
        "name": "STARLINK-35955",
        "group": "last-30-days",
        "lat": 18.85494255287888,
        "lon": -160.3889992005271,
        "alt_km": 420.2032487351207,
        "timestamp": "2025-12-13T05:42:56.156442+00:00",
        "meta_object_name": "STARLINK-35955",
        "meta_object_id": "2025-271U",
        "meta_epoch": "2025-12-12T06:00:00.999648",
        "meta_mean_motion": 15.51870123,
        "meta_eccentricity": 9.915e-05,
        "meta_inclination": 53.1595,
        "meta_ra_of_asc_node": 189.5061,
        "meta_arg_of_pericenter": 84.2072,
        "meta_mean_anomaly": 183.0025,
        "meta_ephemeris_type": 0,
        "meta_classification_type": "U",
        "meta_norad_cat_id": 66635,
        "meta_element_set_no": 999,
        "meta_rev_at_epoch": 416,
        "meta_bstar": -0.033674023,
        "meta_mean_motion_dot": -0.01818632,
        "meta_mean_motion_ddot": 0,
        "tle_line1": "1 66635U 25271U   25346.25001157 -.01818632  00000+0 -33674-1 0  9998",
        "tle_line2": "2 66635  53.1595 189.5061 0000991  84.2072 183.0025 15.51870123  4161"
      },
      "geometry": {
        "type": "Point",
        "coordinates": [
          -160.3889992005271,
          18.85494255287888
        ]
      }
    },
    {
      "type": "Feature",
      "properties": {
        "norad_id": 66636,
        "name": "STARLINK-35968",
        "group": "last-30-days",
        "lat": 20.342067575442496,
        "lon": -159.08967131486122,
        "alt_km": 419.76569658466815,
        "timestamp": "2025-12-13T05:42:56.156452+00:00",
        "meta_object_name": "STARLINK-35968",
        "meta_object_id": "2025-271V",
        "meta_epoch": "2025-12-12T06:00:00.999648",
        "meta_mean_motion": 15.51871935,
        "meta_eccentricity": 0.00011142,
        "meta_inclination": 53.1595,
        "meta_ra_of_asc_node": 189.5017,
        "meta_arg_of_pericenter": 85.3746,
        "meta_mean_anomaly": 183.7491,
        "meta_ephemeris_type": 0,
        "meta_classification_type": "U",
        "meta_norad_cat_id": 66636,
        "meta_element_set_no": 999,
        "meta_rev_at_epoch": 416,
        "meta_bstar": -0.033637132,
        "meta_mean_motion_dot": -0.01817039,
        "meta_mean_motion_ddot": 0,
        "tle_line1": "1 66636U 25271V   25346.25001157 -.01817039  00000+0 -33637-1 0  9998",
        "tle_line2": "2 66636  53.1595 189.5017 0001114  85.3746 183.7491 15.51871935  4167"
      },
      "geometry": {
        "type": "Point",
        "coordinates": [
          -159.08967131486122,
          20.342067575442496
        ]
      }
    },
    {
      "type": "Feature",
      "properties": {
        "norad_id": 66637,
        "name": "STARLINK-35953",
        "group": "last-30-days",
        "lat": 21.805201972706943,
        "lon": -157.7774844624861,
        "alt_km": 419.5862119426156,
        "timestamp": "2025-12-13T05:42:56.156462+00:00",
        "meta_object_name": "STARLINK-35953",
        "meta_object_id": "2025-271W",
        "meta_epoch": "2025-12-12T06:00:00.999648",
        "meta_mean_motion": 15.51871019,
        "meta_eccentricity": 0.0001002,
        "meta_inclination": 53.1598,
        "meta_ra_of_asc_node": 189.4979,
        "meta_arg_of_pericenter": 88.6917,
        "meta_mean_anomaly": 182.3524,
        "meta_ephemeris_type": 0,
        "meta_classification_type": "U",
        "meta_norad_cat_id": 66637,
        "meta_element_set_no": 999,
        "meta_rev_at_epoch": 416,
        "meta_bstar": -0.03368871,
        "meta_mean_motion_dot": -0.01819393,
        "meta_mean_motion_ddot": 0,
        "tle_line1": "1 66637U 25271W   25346.25001157 -.01819393  00000+0 -33689-1 0  9991",
        "tle_line2": "2 66637  53.1598 189.4979 0001002  88.6917 182.3524 15.51871019  4164"
      },
      "geometry": {
        "type": "Point",
        "coordinates": [
          -157.7774844624861,
          21.805201972706943
        ]
      }
    },
    {
      "type": "Feature",
      "properties": {
        "norad_id": 66638,
        "name": "STARLINK-35972",
        "group": "last-30-days",
        "lat": 23.26576351928719,
        "lon": -156.43030226163916,
        "alt_km": 419.4780105106829,
        "timestamp": "2025-12-13T05:42:56.156472+00:00",
        "meta_object_name": "STARLINK-35972",
        "meta_object_id": "2025-271X",
        "meta_epoch": "2025-12-12T06:00:00.999648",
        "meta_mean_motion": 15.51870885,
        "meta_eccentricity": 9.453e-05,
        "meta_inclination": 53.1599,
        "meta_ra_of_asc_node": 189.4944,
        "meta_arg_of_pericenter": 87.1295,
        "meta_mean_anomaly": 185.8307,
        "meta_ephemeris_type": 0,
        "meta_classification_type": "U",
        "meta_norad_cat_id": 66638,
        "meta_element_set_no": 999,
        "meta_rev_at_epoch": 416,
        "meta_bstar": -0.033668718,
        "meta_mean_motion_dot": -0.01818397,
        "meta_mean_motion_ddot": 0,
        "tle_line1": "1 66638U 25271X   25346.25001157 -.01818397  00000+0 -33669-1 0  9993",
        "tle_line2": "2 66638  53.1599 189.4944 0000945  87.1295 185.8307 15.51870885  4163"
      },
      "geometry": {
        "type": "Point",
        "coordinates": [
          -156.43030226163916,
          23.26576351928719
        ]
      }
    },
    {
      "type": "Feature",
      "properties": {
        "norad_id": 66639,
        "name": "STARLINK-35908",
        "group": "last-30-days",
        "lat": 24.710974068239548,
        "lon": -155.0575946440358,
        "alt_km": 419.23492716052897,
        "timestamp": "2025-12-13T05:42:56.156482+00:00",
        "meta_object_name": "STARLINK-35908",
        "meta_object_id": "2025-271Y",
        "meta_epoch": "2025-12-12T06:00:00.999648",
        "meta_mean_motion": 15.51870274,
        "meta_eccentricity": 9.663e-05,
        "meta_inclination": 53.1598,
        "meta_ra_of_asc_node": 189.4899,
        "meta_arg_of_pericenter": 88.5584,
        "meta_mean_anomaly": 186.3193,
        "meta_ephemeris_type": 0,
        "meta_classification_type": "U",
        "meta_norad_cat_id": 66639,
        "meta_element_set_no": 999,
        "meta_rev_at_epoch": 416,
        "meta_bstar": -0.033673927,
        "meta_mean_motion_dot": -0.01818623,
        "meta_mean_motion_ddot": 0,
        "tle_line1": "1 66639U 25271Y   25346.25001157 -.01818623  00000+0 -33674-1 0  9992",
        "tle_line2": "2 66639  53.1598 189.4899 0000966  88.5584 186.3193 15.51870274  4162"
      },
      "geometry": {
        "type": "Point",
        "coordinates": [
          -155.0575946440358,
          24.710974068239548
        ]
      }
    }
  ]
}